[
    {
        "Altitude(m)": 562976.3644558841,
        "Argument of Periapsis(deg)": 0.013245982221427002,
        "Eccentricity": 0.0,
        "Inclination(deg)": 53.0,
        "Latitude(deg)": -31.231883042776236,
        "Longitude(deg)": -29.547570660828505,
        "Mean Anomaly(deg)": -139.81681426484485,
        "RAAN(deg)": 224.98028673705605,
        "Satellite Name": "Starlink Shell 1 1002",
        "Satellite Number": 1002,
        "Semi-Major Axis(m)": 6931778.249405717,
        "Time(s)": 380
    },
    {
        "Altitude(m)": 563151.6724671752,
        "Argument of Periapsis(deg)": 0.013594560700938237,
        "Eccentricity": 0.0,
        "Inclination(deg)": 53.0,
        "Latitude(deg)": -31.67768515741018,
        "Longitude(deg)": -29.073251000083697,
        "Mean Anomaly(deg)": -139.18998306128813,
        "RAAN(deg)": 224.97976796697856,
        "Satellite Name": "Starlink Shell 1 1002",
        "Satellite Number": 1002,
        "Semi-Major Axis(m)": 6931778.249405717,
        "Time(s)": 390
    },
    {
        "Altitude(m)": 563326.8968629359,
        "Argument of Periapsis(deg)": 0.013943139180449475,
        "Eccentricity": 0.0,
        "Inclination(deg)": 53.0,
        "Latitude(deg)": -32.12133991387611,
        "Longitude(deg)": -28.59401230728689,
        "Mean Anomaly(deg)": -138.56315185773138,
        "RAAN(deg)": 224.97924919690107,
        "Satellite Name": "Starlink Shell 1 1002",
        "Satellite Number": 1002,
        "Semi-Major Axis(m)": 6931778.249405717,
        "Time(s)": 400
    },
    {
        "Altitude(m)": 563501.9713956204,
        "Argument of Periapsis(deg)": 0.014291717659960712,
        "Eccentricity": 0.0,
        "Inclination(deg)": 53.0,
        "Latitude(deg)": -32.562790634944754,
        "Longitude(deg)": -28.109744754806968,
        "Mean Anomaly(deg)": -137.93632065417472,
        "RAAN(deg)": 224.9787304268236,
        "Satellite Name": "Starlink Shell 1 1002",
        "Satellite Number": 1002,
        "Semi-Major Axis(m)": 6931778.249405717,
        "Time(s)": 410
    },
    {
        "Altitude(m)": 563676.8297384263,
        "Argument of Periapsis(deg)": 0.014640296139471948,
        "Eccentricity": 0.0,
        "Inclination(deg)": 53.0,
        "Latitude(deg)": -33.001979342725306,
        "Longitude(deg)": -27.620337869526786,
        "Mean Anomaly(deg)": -137.30948945061797,
        "RAAN(deg)": 224.97821165674614,
        "Satellite Name": "Starlink Shell 1 1002",
        "Satellite Number": 1002,
        "Semi-Major Axis(m)": 6931778.249405717,
        "Time(s)": 420
    },
    {
        "Altitude(m)": 563851.4055149854,
        "Argument of Periapsis(deg)": 0.014988874618983185,
        "Eccentricity": 0.0,
        "Inclination(deg)": 53.0,
        "Latitude(deg)": -33.438846726269695,
        "Longitude(deg)": -27.125680069121888,
        "Mean Anomaly(deg)": -136.68265824706128,
        "RAAN(deg)": 224.97769288666865,
        "Satellite Name": "Starlink Shell 1 1002",
        "Satellite Number": 1002,
        "Semi-Major Axis(m)": 6931778.249405717,
        "Time(s)": 430
    },
    {
        "Altitude(m)": 564025.632329082,
        "Argument of Periapsis(deg)": 0.015337453098494424,
        "Eccentricity": 0.0,
        "Inclination(deg)": 53.0,
        "Latitude(deg)": -33.87333210914226,
        "Longitude(deg)": -26.625658204473584,
        "Mean Anomaly(deg)": -136.05582704350454,
        "RAAN(deg)": 224.9771741165912,
        "Satellite Name": "Starlink Shell 1 1002",
        "Satellite Number": 1002,
        "Semi-Major Axis(m)": 6931778.249405717,
        "Time(s)": 440
    },
    {
        "Altitude(m)": 564199.4437943441,
        "Argument of Periapsis(deg)": 0.01568603157800566,
        "Eccentricity": 0.0,
        "Inclination(deg)": 53.0,
        "Latitude(deg)": -34.305373417031056,
        "Longitude(deg)": -26.1201586215208,
        "Mean Anomaly(deg)": -135.42899583994785,
        "RAAN(deg)": 224.97665534651375,
        "Satellite Name": "Starlink Shell 1 1002",
        "Satellite Number": 1002,
        "Semi-Major Axis(m)": 6931778.249405717,
        "Time(s)": 450
    },
    {
        "Altitude(m)": 564372.7735639361,
        "Argument of Periapsis(deg)": 0.0160346100575169,
        "Eccentricity": 0.0,
        "Inclination(deg)": 53.0,
        "Latitude(deg)": -34.734907145481,
        "Longitude(deg)": -25.609066717251483,
        "Mean Anomaly(deg)": -134.8021646363911,
        "RAAN(deg)": 224.97613657643623,
        "Satellite Name": "Starlink Shell 1 1002",
        "Satellite Number": 1002,
        "Semi-Major Axis(m)": 6931778.249405717,
        "Time(s)": 460
    },
    {
        "Altitude(m)": 564545.5553602041,
        "Argument of Periapsis(deg)": 0.016383188537028134,
        "Eccentricity": 0.0,
        "Inclination(deg)": 53.0,
        "Latitude(deg)": -35.161868327841404,
        "Longitude(deg)": -25.092266503178582,
        "Mean Anomaly(deg)": -134.1753334328344,
        "RAAN(deg)": 224.9756178063588,
        "Satellite Name": "Starlink Shell 1 1002",
        "Satellite Number": 1002,
        "Semi-Major Axis(m)": 6931778.249405717,
        "Time(s)": 470
    },
    {
        "Altitude(m)": 564717.7230043048,
        "Argument of Periapsis(deg)": 0.01673176701653937,
        "Eccentricity": 0.0,
        "Inclination(deg)": 53.0,
        "Latitude(deg)": -35.58619050353187,
        "Longitude(deg)": -24.569641689663065,
        "Mean Anomaly(deg)": -133.54850222927772,
        "RAAN(deg)": 224.97509903628128,
        "Satellite Name": "Starlink Shell 1 1002",
        "Satellite Number": 1002,
        "Semi-Major Axis(m)": 6931778.249405717,
        "Time(s)": 480
    },
    {
        "Altitude(m)": 564889.210445732,
        "Argument of Periapsis(deg)": 0.017080345496050607,
        "Eccentricity": 0.0,
        "Inclination(deg)": 53.0,
        "Latitude(deg)": -36.00780568673183,
        "Longitude(deg)": -24.041075265842498,
        "Mean Anomaly(deg)": -132.92167102572094,
        "RAAN(deg)": 224.97458026620384,
        "Satellite Name": "Starlink Shell 1 1002",
        "Satellite Number": 1002,
        "Semi-Major Axis(m)": 6931778.249405717,
        "Time(s)": 490
    },
    {
        "Altitude(m)": 565059.9517918191,
        "Argument of Periapsis(deg)": 0.017428923975561842,
        "Eccentricity": 0.0,
        "Inclination(deg)": 53.0,
        "Latitude(deg)": -36.426644335616125,
        "Longitude(deg)": -23.506449088566693,
        "Mean Anomaly(deg)": -132.29483982216428,
        "RAAN(deg)": 224.97406149612635,
        "Satellite Name": "Starlink Shell 1 1002",
        "Satellite Number": 1002,
        "Semi-Major Axis(m)": 6931778.249405717,
        "Time(s)": 500
    },
    {
        "Altitude(m)": 565229.8813371174,
        "Argument of Periapsis(deg)": 0.01777750245507308,
        "Eccentricity": 0.0,
        "Inclination(deg)": 53.0,
        "Latitude(deg)": -36.84263532227169,
        "Longitude(deg)": -22.965644993753557,
        "Mean Anomaly(deg)": -131.66800861860753,
        "RAAN(deg)": 224.9735427260489,
        "Satellite Name": "Starlink Shell 1 1002",
        "Satellite Number": 1002,
        "Semi-Major Axis(m)": 6931778.249405717,
        "Time(s)": 510
    },
    {
        "Altitude(m)": 565398.9335927082,
        "Argument of Periapsis(deg)": 0.018126080934584315,
        "Eccentricity": 0.0,
        "Inclination(deg)": 53.0,
        "Latitude(deg)": -37.25570590343073,
        "Longitude(deg)": -22.41854440497849,
        "Mean Anomaly(deg)": -131.04117741505087,
        "RAAN(deg)": 224.9730239559714,
        "Satellite Name": "Starlink Shell 1 1002",
        "Satellite Number": 1002,
        "Semi-Major Axis(m)": 6931778.249405717,
        "Time(s)": 520
    },
    {
        "Altitude(m)": 565567.0433153685,
        "Argument of Periapsis(deg)": 0.018474659414095554,
        "Eccentricity": 0.0,
        "Inclination(deg)": 53.0,
        "Latitude(deg)": -37.665781692179685,
        "Longitude(deg)": -21.865027952738235,
        "Mean Anomaly(deg)": -130.4143462114941,
        "RAAN(deg)": 224.97250518589394,
        "Satellite Name": "Starlink Shell 1 1002",
        "Satellite Number": 1002,
        "Semi-Major Axis(m)": 6931778.249405717,
        "Time(s)": 530
    },
    {
        "Altitude(m)": 565734.145536628,
        "Argument of Periapsis(deg)": 0.018823237893606792,
        "Eccentricity": 0.0,
        "Inclination(deg)": 53.0,
        "Latitude(deg)": -38.07278663081105,
        "Longitude(deg)": -21.304976617850294,
        "Mean Anomaly(deg)": -129.7875150079374,
        "RAAN(deg)": 224.97198641581647,
        "Satellite Name": "Starlink Shell 1 1002",
        "Satellite Number": 1002,
        "Semi-Major Axis(m)": 6931778.249405717,
        "Time(s)": 540
    },
    {
        "Altitude(m)": 565900.1755917073,
        "Argument of Periapsis(deg)": 0.019171816373118027,
        "Eccentricity": 0.0,
        "Inclination(deg)": 53.0,
        "Latitude(deg)": -38.47664296499542,
        "Longitude(deg)": -20.738271373827487,
        "Mean Anomaly(deg)": -129.16068380438068,
        "RAAN(deg)": 224.97146764573898,
        "Satellite Name": "Starlink Shell 1 1002",
        "Satellite Number": 1002,
        "Semi-Major Axis(m)": 6931778.249405717,
        "Time(s)": 550
    },
    {
        "Altitude(m)": 566065.0691482594,
        "Argument of Periapsis(deg)": 0.019520394852629266,
        "Eccentricity": 0.0,
        "Inclination(deg)": 53.0,
        "Latitude(deg)": -38.87727121946734,
        "Longitude(deg)": -20.164792841701974,
        "Mean Anomaly(deg)": -128.53385260082393,
        "RAAN(deg)": 224.97094887566152,
        "Satellite Name": "Starlink Shell 1 1002",
        "Satellite Number": 1002,
        "Semi-Major Axis(m)": 6931778.249405717,
        "Time(s)": 560
    }
]